[{"OBJECT_NAME":"STARLINK-32081","OBJECT_ID":"2024-136V","EPOCH":"2026-03-09T08:04:53.037408","MEAN_MOTION":15.30190436,"ECCENTRICITY":0.00013053,"INCLINATION":53.1602,"RA_OF_ASC_NODE":77.0795,"ARG_OF_PERICENTER":80.28,"MEAN_ANOMALY":279.8348,"EPHEMERIS_TYPE":0,"CLASSIFICATION_TYPE":"U","NORAD_CAT_ID":60348,"ELEMENT_SET_NO":999,"REV_AT_EPOCH":8961,"BSTAR":9.115408e-6,"MEAN_MOTION_DOT":-8.9e-7,"MEAN_MOTION_DDOT":0},{"OBJECT_NAME":"FENGYUN 1C DEB","OBJECT_ID":"1999-025CUF","EPOCH":"2026-03-09T01:34:38.628768","MEAN_MOTION":15.17132493,"ECCENTRICITY":0.01273829,"INCLINATION":98.8955,"RA_OF_ASC_NODE":293.2327,"ARG_OF_PERICENTER":89.1897,"MEAN_ANOMALY":272.3925,"EPHEMERIS_TYPE":0,"CLASSIFICATION_TYPE":"U","NORAD_CAT_ID":32185,"ELEMENT_SET_NO":999,"REV_AT_EPOCH":96318,"BSTAR":0.0036969643,"MEAN_MOTION_DOT":0.00091378,"MEAN_MOTION_DDOT":0}]
